start=new Date('2023-03-06T00:00:00.000Z').valueOf();
sats=[{"RA_OF_ASC_NODE":"171.5171","COUNTRY_CODE":"US","MEAN_MOTION":"15.06383035","LAUNCH_DATE":"2021-03-14","OBJECT_NAME":"STARLINK-2320","PERIAPSIS":"546.302","GP_ID":"227546295","INCLINATION":"53.0515","NORAD_CAT_ID":"47866","CENTER_NAME":"EARTH","APOAPSIS":"548.229","EPOCH":"2023-03-05T06:54:08.760096","REF_FRAME":"TEME","OBJECT_ID":"2021-021G","FILE":"3851939","ECCENTRICITY":"0.00013910","TLE_LINE1":"1 47866U 21021G   23064.28760139  .00013746  00000-0  94032-3 0  9990","MEAN_ELEMENT_THEORY":"SGP4","SEMIMAJOR_AXIS":"6925.401","DECAY_DATE":null,"MEAN_MOTION_DOT":"0.00013746","ELEMENT_SET_NO":"999","ARG_OF_PERICENTER":"84.3693","TLE_LINE2":"2 47866  53.0515 171.5171 0001391  84.3693 275.7455 15.06383035110496","OBJECT_TYPE":"PAYLOAD","TIME_SYSTEM":"UTC","REV_AT_EPOCH":"11049","BSTAR":"0.00094032000000","CLASSIFICATION_TYPE":"U","SITE":"AFETR","MEAN_MOTION_DDOT":"0.0000000000000","RCS_SIZE":"LARGE","PERIOD":"95.593","EPHEMERIS_TYPE":"0","MEAN_ANOMALY":"275.7455"},{"OBJECT_ID":"2021-021H","FILE":"3852256","APOAPSIS":"548.036","EPOCH":"2023-03-05T09:55:55.478784","REF_FRAME":"TEME","ECCENTRICITY":"0.00011760","TLE_LINE1":"1 47867U 21021H   23064.41383656  .00010612  00000-0  73029-3 0  9993","DECAY_DATE":null,"MEAN_ELEMENT_THEORY":"SGP4","SEMIMAJOR_AXIS":"6925.357","MEAN_MOTION_DOT":"0.00010612","MEAN_MOTION":"15.06397350","COUNTRY_CODE":"US","LAUNCH_DATE":"2021-03-14","RA_OF_ASC_NODE":"160.9478","OBJECT_NAME":"STARLINK-2321","GP_ID":"227579989","INCLINATION":"53.0519","PERIAPSIS":"546.407","CENTER_NAME":"EARTH","NORAD_CAT_ID":"47867","CLASSIFICATION_TYPE":"U","SITE":"AFETR","MEAN_MOTION_DDOT":"0.0000000000000","RCS_SIZE":"LARGE","MEAN_ANOMALY":"251.0002","EPHEMERIS_TYPE":"0","PERIOD":"95.592","REV_AT_EPOCH":"11045","ELEMENT_SET_NO":"999","TLE_LINE2":"2 47867  53.0519 160.9478 0001176 109.1114 251.0002 15.06397350110454","OBJECT_TYPE":"PAYLOAD","TIME_SYSTEM":"UTC","ARG_OF_PERICENTER":"109.1114","BSTAR":"0.00073029000000"},{"CLASSIFICATION_TYPE":"U","SITE":"AFETR","MEAN_MOTION_DDOT":"0.0000000000000","RCS_SIZE":"LARGE","PERIOD":"95.592","EPHEMERIS_TYPE":"0","MEAN_ANOMALY":"252.5975","ELEMENT_SET_NO":"999","ARG_OF_PERICENTER":"107.5204","TLE_LINE2":"2 47868  53.0528 110.9764 0001737 107.5204 252.5975 15.06399483111201","OBJECT_TYPE":"PAYLOAD","TIME_SYSTEM":"UTC","REV_AT_EPOCH":"11120","BSTAR":"0.00079261000000","APOAPSIS":"548.418","EPOCH":"2023-03-05T09:46:38.173728","REF_FRAME":"TEME","OBJECT_ID":"2021-021J","FILE":"3852256","ECCENTRICITY":"0.00017370","TLE_LINE1":"1 47868U 21021J   23064.40738627  .00011544  00000-0  79261-3 0  9994","SEMIMAJOR_AXIS":"6925.350","MEAN_ELEMENT_THEORY":"SGP4","DECAY_DATE":null,"MEAN_MOTION_DOT":"0.00011544","RA_OF_ASC_NODE":"110.9764","MEAN_MOTION":"15.06399483","COUNTRY_CODE":"US","LAUNCH_DATE":"2021-03-14","OBJECT_NAME":"STARLINK-2323","PERIAPSIS":"546.012","GP_ID":"227580239","INCLINATION":"53.0528","NORAD_CAT_ID":"47868","CENTER_NAME":"EARTH"},{"LAUNCH_DATE":"2021-03-14","COUNTRY_CODE":"US","MEAN_MOTION":"15.06401304","RA_OF_ASC_NODE":"158.8824","OBJECT_NAME":"STARLINK-2324","INCLINATION":"53.0561","GP_ID":"227581462","PERIAPSIS":"546.350","CENTER_NAME":"EARTH","NORAD_CAT_ID":"47869","FILE":"3852256","OBJECT_ID":"2021-021K","EPOCH":"2023-03-05T20:59:23.540064","REF_FRAME":"TEME","APOAPSIS":"548.069","TLE_LINE1":"1 47869U 21021K   23064.87457801  .00018309  00000-0  12448-2 0  9997","ECCENTRICITY":"0.00012410","DECAY_DATE":null,"SEMIMAJOR_AXIS":"6925.345","MEAN_ELEMENT_THEORY":"SGP4","MEAN_MOTION_DOT":"0.00018309","REV_AT_EPOCH":"11067","TIME_SYSTEM":"UTC","TLE_LINE2":"2 47869  53.0561 158.8824 0001241  68.2652 291.8469 15.06401304110677","OBJECT_TYPE":"PAYLOAD","ARG_OF_PERICENTER":"68.2652","ELEMENT_SET_NO":"999","BSTAR":"0.00124480000000","SITE":"AFETR","CLASSIFICATION_TYPE":"U","MEAN_MOTION_DDOT":"0.0000000000000","RCS_SIZE":"LARGE","MEAN_ANOMALY":"291.8469","EPHEMERIS_TYPE":"0","PERIOD":"95.592"},{"GP_ID":"227554283","INCLINATION":"53.0537","PERIAPSIS":"546.274","CENTER_NAME":"EARTH","NORAD_CAT_ID":"47870","COUNTRY_CODE":"US","MEAN_MOTION":"15.06391194","LAUNCH_DATE":"2021-03-14","RA_OF_ASC_NODE":"186.1842","OBJECT_NAME":"STARLINK-2326","DECAY_DATE":null,"MEAN_ELEMENT_THEORY":"SGP4","SEMIMAJOR_AXIS":"6925.376","MEAN_MOTION_DOT":"-0.00002109","OBJECT_ID":"2021-021L","FILE":"3852032","APOAPSIS":"548.207","EPOCH":"2023-03-05T08:40:57.191520","REF_FRAME":"TEME","TLE_LINE1":"1 47870U 21021L   23064.36177305 -.00002109  00000-0 -12279-3 0  9997","ECCENTRICITY":"0.00013950","BSTAR":"-0.00012279000000","REV_AT_EPOCH":"10965","ELEMENT_SET_NO":"999","TIME_SYSTEM":"UTC","TLE_LINE2":"2 47870  53.0537 186.1842 0001395  86.7426 273.3723 15.06391194109659","OBJECT_TYPE":"PAYLOAD","ARG_OF_PERICENTER":"86.7426","RCS_SIZE":"LARGE","MEAN_ANOMALY":"273.3723","EPHEMERIS_TYPE":"0","PERIOD":"95.593","CLASSIFICATION_TYPE":"U","SITE":"AFETR","MEAN_MOTION_DDOT":"0.0000000000000"},{"APOAPSIS":"548.228","REF_FRAME":"TEME","EPOCH":"2023-03-05T09:45:18.252864","OBJECT_ID":"2021-021M","FILE":"3852256","ECCENTRICITY":"0.00014130","TLE_LINE1":"1 47871U 21021M   23064.40646126  .00009770  00000-0  67410-3 0  9991","SEMIMAJOR_AXIS":"6925.384","MEAN_ELEMENT_THEORY":"SGP4","DECAY_DATE":null,"MEAN_MOTION_DOT":"0.00009770","RA_OF_ASC_NODE":"160.9797","MEAN_MOTION":"15.06388404","COUNTRY_CODE":"US","LAUNCH_DATE":"2021-03-14","OBJECT_NAME":"STARLINK-2327","PERIAPSIS":"546.271","GP_ID":"227580467","INCLINATION":"53.0546","NORAD_CAT_ID":"47871","CENTER_NAME":"EARTH","CLASSIFICATION_TYPE":"U","SITE":"AFETR","MEAN_MOTION_DDOT":"0.0000000000000","RCS_SIZE":"LARGE","PERIOD":"95.593","EPHEMERIS_TYPE":"0","MEAN_ANOMALY":"238.8521","ELEMENT_SET_NO":"999","TLE_LINE2":"2 47871  53.0546 160.9797 0001413 121.2606 238.8521 15.06388404110491","ARG_OF_PERICENTER":"121.2606","OBJECT_TYPE":"PAYLOAD","TIME_SYSTEM":"UTC","REV_AT_EPOCH":"11049","BSTAR":"0.00067410000000"},{"BSTAR":"0.00009101200000","REV_AT_EPOCH":"11279","ELEMENT_SET_NO":"999","ARG_OF_PERICENTER":"104.9037","TLE_LINE2":"2 47872  53.0442 356.2005 0001103 104.9037 255.2105 15.76720998112792","OBJECT_TYPE":"PAYLOAD","TIME_SYSTEM":"UTC","RCS_SIZE":"LARGE","MEAN_ANOMALY":"255.2105","EPHEMERIS_TYPE":"0","PERIOD":"91.329","CLASSIFICATION_TYPE":"U","SITE":"AFETR","MEAN_MOTION_DDOT":"0.0000000000000","GP_ID":"227547290","INCLINATION":"53.0442","PERIAPSIS":"338.999","CENTER_NAME":"EARTH","NORAD_CAT_ID":"47872","COUNTRY_CODE":"US","MEAN_MOTION":"15.76720998","LAUNCH_DATE":"2021-03-14","RA_OF_ASC_NODE":"356.2005","OBJECT_NAME":"STARLINK-2328","DECAY_DATE":null,"MEAN_ELEMENT_THEORY":"SGP4","SEMIMAJOR_AXIS":"6717.875","MEAN_MOTION_DOT":"0.00014262","OBJECT_ID":"2021-021N","FILE":"3851939","APOAPSIS":"340.481","EPOCH":"2023-03-05T02:21:07.535232","REF_FRAME":"TEME","TLE_LINE1":"1 47872U 21021N   23064.09800388  .00014262  00000-0  91012-4 0  9997","ECCENTRICITY":"0.00011030"},{"INCLINATION":"53.0541","GP_ID":"227547044","PERIAPSIS":"546.339","CENTER_NAME":"EARTH","NORAD_CAT_ID":"47873","LAUNCH_DATE":"2021-03-14","COUNTRY_CODE":"US","MEAN_MOTION":"15.06400256","RA_OF_ASC_NODE":"162.8479","OBJECT_NAME":"STARLINK-2329","DECAY_DATE":null,"MEAN_ELEMENT_THEORY":"SGP4","SEMIMAJOR_AXIS":"6925.348","MEAN_MOTION_DOT":"0.00007409","FILE":"3851939","OBJECT_ID":"2021-021P","EPOCH":"2023-03-04T23:45:31.697280","REF_FRAME":"TEME","APOAPSIS":"548.086","TLE_LINE1":"1 47873U 21021P   23063.98995020  .00007409  00000-0  51576-3 0  9998","ECCENTRICITY":"0.00012610","BSTAR":"0.00051576000000","REV_AT_EPOCH":"11042","TLE_LINE2":"2 47873  53.0541 162.8479 0001261  96.6552 263.4580 15.06400256110424","ARG_OF_PERICENTER":"96.6552","OBJECT_TYPE":"PAYLOAD","TIME_SYSTEM":"UTC","ELEMENT_SET_NO":"999","RCS_SIZE":"LARGE","MEAN_ANOMALY":"263.4580","EPHEMERIS_TYPE":"0","PERIOD":"95.592","SITE":"AFETR","CLASSIFICATION_TYPE":"U","MEAN_MOTION_DDOT":"0.0000000000000"},{"NORAD_CAT_ID":"47874","CENTER_NAME":"EARTH","PERIAPSIS":"546.040","GP_ID":"227581700","INCLINATION":"53.0527","OBJECT_NAME":"STARLINK-2330","RA_OF_ASC_NODE":"113.9446","MEAN_MOTION":"15.06398282","COUNTRY_CODE":"US","LAUNCH_DATE":"2021-03-14","MEAN_MOTION_DOT":"0.00013418","SEMIMAJOR_AXIS":"6925.354","MEAN_ELEMENT_THEORY":"SGP4","DECAY_DATE":null,"ECCENTRICITY":"0.00017020","TLE_LINE1":"1 47874U 21021Q   23064.86214291  .00013418  00000-0  91802-3 0  9994","APOAPSIS":"548.398","EPOCH":"2023-03-05T20:41:29.147424","REF_FRAME":"TEME","OBJECT_ID":"2021-021Q","FILE":"3852256","BSTAR":"0.00091802000000","ELEMENT_SET_NO":"999","TLE_LINE2":"2 47874  53.0527 113.9446 0001702  88.6164 271.5020 15.06398282111199","OBJECT_TYPE":"PAYLOAD","TIME_SYSTEM":"UTC","ARG_OF_PERICENTER":"88.6164","REV_AT_EPOCH":"11119","PERIOD":"95.592","EPHEMERIS_TYPE":"0","MEAN_ANOMALY":"271.5020","RCS_SIZE":"LARGE","MEAN_MOTION_DDOT":"0.0000000000000","CLASSIFICATION_TYPE":"U","SITE":"AFETR"},{"REV_AT_EPOCH":"11039","TLE_LINE2":"2 47875  53.0515 171.4015 0000924 131.1328 228.9740 15.06405234110391","OBJECT_TYPE":"PAYLOAD","TIME_SYSTEM":"UTC","ARG_OF_PERICENTER":"131.1328","ELEMENT_SET_NO":"999","BSTAR":"0.00242210000000","MEAN_MOTION_DDOT":"0.0000000000000","SITE":"AFETR","CLASSIFICATION_TYPE":"U","MEAN_ANOMALY":"228.9740","PERIOD":"95.592","EPHEMERIS_TYPE":"0","RCS_SIZE":"LARGE","OBJECT_NAME":"STARLINK-2331","LAUNCH_DATE":"2021-03-14","MEAN_MOTION":"15.06405234","COUNTRY_CODE":"US","RA_OF_ASC_NODE":"171.4015","CENTER_NAME":"EARTH","NORAD_CAT_ID":"47875","INCLINATION":"53.0515","GP_ID":"227546546","PERIAPSIS":"546.558","TLE_LINE1":"1 47875U 21021R   23064.31339342  .00035985  00000-0  24221-2 0  9993","ECCENTRICITY":"0.00009240","FILE":"3851939","OBJECT_ID":"2021-021R","EPOCH":"2023-03-05T07:31:17.191488","REF_FRAME":"TEME","APOAPSIS":"547.837","MEAN_MOTION_DOT":"0.00035985","DECAY_DATE":null,"MEAN_ELEMENT_THEORY":"SGP4","SEMIMAJOR_AXIS":"6925.333"}];
